COSMOS 2482             
1 39057U 13001A   13023.06288758  .00000010  00000-0  00000+0 0   252
2 39057  82.4941  24.1481 0016507 267.6965  92.2221 12.44045229   926
COSMOS 2483             
1 39058U 13001B   13023.06359699  .00000010  00000-0  00000+0 0   267
2 39058  82.4981  24.1568 0015047 266.4912  93.4447 12.43924552   909
COSMOS 2484             
1 39059U 13001C   13023.06643737  .00000010  00000-0  00000+0 0   267
2 39059  82.4977  24.1564 0014734 277.3720  82.5683 12.43441630   903
BREEZE-KM R/B           
1 39060U 13001D   13023.07177418  .00000010  00000-0  00000+0 0   268
2 39060  82.4905  24.1852 0011482 290.9971  68.9880 12.42534835   908
